#dP2022  8 27  6  0  0.00000000      96 __u+U ITR00 EXT  IAC
## 2224 540000.00000000   900.00000000 59818 0.2500000000000
+  116   C06C07C08C09C10C11C12C13C14C16C19C20C21C22C23C24C25
+        C26C27C28C29C30C32C33C34C35C36C37C38C39C40C41C42C43
+        C44C45C46E01E02E03E04E05E07E08E09E10E11E12E13E14E15
+        E18E19E21E24E25E26E27E30E31E33E34E36G01G02G03G04G05
+        G06G07G08G09G10G11G12G13G14G15G16G17G18G19G20G21G22
+        G23G24G25G26G27G28G29G30G31G32J02J03R01R02R03R04R05
+        R07R08R09R11R12R13R14R15R17R18R19R20R21R24  0  0  0
++         9 10  9 10  9  8  8  7  9  9  7  8  8  9  8  9  9
++         7  7 10  9  8  8  9 10  9  8 10 10  9  8  7  9  9
++        10  8  8  8  8  8  7  9  8  7  9  8  7  8  8  7  7
++         7  7  6  6  8  8  7  7  8  8  8  7  7  8  7 11  8
++         7  7  7  7  9 10  6  8  8  8  7  8  8  7  7  7  7
++         7  8  8  7  8  9  7  8  8  8  9  9  8  9  7  7 10
++         9  8  7  8  9  8  6  8  8  7  8 11  7 10  0  0  0
%c M  cc GPS ccc cccc cccc cccc cccc ccccc ccccc ccccc ccccc
%c cc cc ccc ccc cccc cccc cccc cccc ccccc ccccc ccccc ccccc
%f  0.0000000  0.000000000  0.00000000000  0.000000000000000
%f  0.0000000  0.000000000  0.00000000000  0.000000000000000
%i    0    0    0    0      0      0      0      0         0
%i    0    0    0    0      0      0      0      0         0
/* IAC                                ULTRA-RAPID PREDICTION
/* S/V CLOCKS ARE ALIGNED TO GNSS TIME                      
/* G:C1WC2W R:C1PC2P E:C1XC5X C:C2IC6I J:C1CC2S             
/* PCV:IGS14_2218 OL/AL:FES2004  NONE     YN ORB:CoN CLK:CoN
*  2022 08 27  6  0  0.00000000
PC06 -13719.716060  39980.597341  -1277.151309    701.674396
PC07  -3512.884016  30215.178297 -29089.357336    -58.221159
PC08 -16217.103617  22019.192189  32009.626991    453.824871
PC09  -9292.068737  40157.766315  -9699.729138   -882.396647
PC10   3667.687787  32775.114074 -25699.200501    104.022498
PC11  -1033.666788  26260.782102   9385.687168   -445.058725
PC12 -12030.101931  23785.341683  -8186.663435   -538.199007
PC13  -8223.431808  23636.143004  33992.365454     63.954753
PC14   9537.648324  22320.793542  13729.543637    614.762276
PC16 -15821.178316  39172.068604   2414.487977    141.137380
PC19 -17156.048648 -21414.150193  -5127.477918   -519.582415
PC20  -2236.159226 -20281.580009 -19044.601817    297.195210
PC21 -15143.774531   6770.848004  22452.486741   -269.968546
PC22 -22819.005264 -10290.693438  12356.733323   -353.988350
PC23  25396.914656   1430.933026 -11466.074382   -969.358081
PC24 -10600.632422  17310.735233 -19139.850976   -970.477309
PC25  12002.425930  12669.240785 -21782.340403   -687.023229
PC26 -24207.942896  12274.034922  -6415.422950    689.382192
PC27  15596.356853 -17265.499752  15381.992520     11.571150
PC28  15856.442105   2005.213255  22877.619447      5.971455
PC29  -7300.722506 -21007.342959 -16867.234212      5.348644
PC30   5894.390133 -27266.534595   -317.641547    502.466011
PC32  15134.566658  -6838.903056 -22416.017688   -833.319635
PC33  17183.890390  21340.588563   5245.787965   -511.102366
PC34  -5234.076009  27384.624062   1367.470246   -327.110782
PC35 -15694.249593  -2969.414232 -22893.286908    431.055576
PC36 -11081.533652 -13244.122758  21951.117116   -967.816745
PC37  25093.711222 -11053.703838   5268.518804     -6.494946
PC38 -23396.227813  23211.837133  26197.073389     20.014465
PC39 -16606.217480  37994.220307   8198.354713     -0.318849
PC40  -6910.435794  25129.702383 -33091.882236     -3.035184
PC41  22883.064024  10644.998520 -11860.787229    -22.833749
PC42   1070.826008  19797.630082  19666.143826   -186.668005
PC43   6825.882082  21603.237685  16292.395611     10.901684
PC44 -15138.721944  17622.000722 -15492.197857     30.648913
PC45 -25505.712511  -1150.134421  11248.791041    845.458184
PC46   8880.963431 -17308.965626  20029.463303   -508.547085
PE01  16992.396200  16758.767193 -17500.679033   -542.603393
PE02 -17142.420960 -16722.626986  17395.064604    320.916008
PE03 -12492.274707 -25886.732794   7098.923575   -593.652929
PE04  18236.762324   9620.175380 -21233.733451  -1102.319097
PE05    728.743785 -27261.713093 -11513.254628   -149.710682
PE07 -13322.560398  12766.009897  23146.197632   -700.174659
PE08 -18150.375018  -9487.758056  21374.567320   -588.310140
PE09  13179.362637 -12716.151279 -23257.655822   -637.214794
PE10  23305.049045 -10277.628440  15079.891350   -472.641933
PE11  22640.783609 -18224.525617   5582.334021   2472.279360
PE12  20358.395521  -1037.931440  21452.047789   -136.712586
PE13 -22789.524595  17779.329684  -6375.200840    430.398313
PE14  13084.188055  13876.817860  13640.515754  -1737.729841
PE15 -20216.205885    941.687353 -21599.400265    724.292819
PE18 -18876.844175 -16754.867154 -20500.545594  -1047.398462
PE19  10979.487687  27079.729357  -4723.470246  -4697.372374
PE21  -2955.748801  16457.609670 -24417.152962   -754.190321
PE24  23415.982054  -6000.915782  17092.054080   -803.314859
PE25   3295.034559 -16387.542898  24441.689757   -585.850369
PE26 -11224.625664  24006.245237  13171.745882  -1542.399448
PE27 -22623.586636   6763.471997 -17834.983999   -377.835778
PE30 -28632.703501  -7485.202128      8.417491   -787.531292
PE31  28797.083977   6798.040529    850.839544   -502.399636
PE33   5737.272039  16350.080583  23995.865662   -453.644525
PE34  -5928.333069 -16226.479703 -24049.510750     -1.457810
PE36  11967.371799 -24038.469362 -12459.413224   -422.636978
PG01  10484.307335 -20252.971658 -13627.232244    294.662915
PG02 -17852.503739  19750.365338   2080.673693   -647.958248
PG03   3065.481843 -14753.309775 -22000.753630   -340.026730
PG04   2200.645099 -25081.046080  -8305.684522   -127.440763
PG05 -16346.260017   8717.627759  18907.982919    -94.395736
PG06 -20020.339027   1843.580105 -17335.013945    439.926855
PG07  -5147.344264 -15514.027138  21270.233942    312.006589
PG08   7241.737211 -19802.774836  15889.385676    -82.136726
PG09  -6998.677001 -25463.065228   2587.175611   -303.468748
PG10  23601.001489  11721.682543   4599.162250     -0.604516
PG11 -23010.670756  10810.161123  -7631.297027    -12.829656
PG12  -5670.723649  14093.982759 -22053.594962   -268.722950
PG13 -13038.485591  11733.184684  19724.272898    375.781814
PG14 -22263.904148 -13388.781925   5800.263946   -107.304837
PG15  -5173.609130  20745.533980  15132.390899    -33.967520
PG16  21454.186816  -1866.170562  15566.915787   -522.101495
PG17 -12511.630533 -17157.963175 -15481.533788    652.821832
PG18   5007.563167  14796.326004  21454.097874     68.656734
PG19 -14804.615067  -7359.527865 -21087.589005    202.611943
PG20 -24744.901571   2086.345275   9100.705043    491.432937
PG21  16461.441732 -19915.228700  -3518.725246    160.119598
PG22  15127.067933   4177.605063 -21036.056694    317.028816
PG23  16895.344550  15374.984079  13641.612771    -38.143605
PG24 -12132.147787  21659.763421  -9145.318195    155.640706
PG25   8486.294422  17101.856635 -18862.249920    365.381538
PG26  25695.370740   2255.994592   6910.961724    225.698318
PG27  13398.468181  -7719.155627  21325.370913    216.901390
PG28 -24494.140507  -9387.385500  -2726.060163    340.472161
PG29   4301.543219  26052.077937   2371.985191   -546.365472
PG30 -14997.063873  -7464.220246  20749.330794   -536.400076
PG31  21494.980365  -3036.744115 -15743.135891   -191.148615
PG32  14805.302264  13925.820889 -17049.549588   -215.477692
PJ02 -30482.130832  14591.336667 -20626.117848     -3.859031
PJ03 -24176.773546  32669.151762  -6506.012299     -0.988665
PR01   8228.832507  -7400.934295 -22985.632748     13.795676
PR02  -5952.489851 -20231.795216 -14262.657809    528.070380
PR03 -15636.706726 -19960.106509   2533.455092     62.608842
PR04 -16219.049036  -8785.859421  17636.539525    155.381320
PR05  -8047.200809   7285.650404  23090.600238     98.625578
PR07  15837.345375  19771.831399  -3171.537884     40.015992
PR08  16298.376632   8630.695349 -17584.191846    -66.892503
PR09  -2993.274865  11578.199363 -22516.075159     73.418981
PR11  24970.189095   -302.236323  -5144.669874     29.235166
PR12  20156.084860  -8398.870741  13229.413058     20.484614
PR13   4611.899315 -11327.932578  22376.457076    -26.155811
PR14 -15523.963850  -7551.904425  18805.675339     24.405949
PR15 -25159.143078    440.835661   4229.203266     94.021665
PR17  -4057.843971 -13903.046353 -21006.446238    555.955966
PR18 -12259.575506   2605.103994 -22212.847194     39.485353
PR19 -14716.167674  16387.771927 -12858.426877   -201.458018
PR20  -8092.970913  23057.568534   7375.222631    -77.274389
PR21   4902.451272  12478.172559  21688.826303   -328.866118
PR24   6949.699910 -23235.935320  -7930.350371    111.189024
EOF
